[{"OBJECT_NAME":"STARLINK-32603","OBJECT_ID":"2024-217R","EPOCH":"2026-03-09T14:03:34.630272","MEAN_MOTION":15.30195162,"ECCENTRICITY":0.0001028,"INCLINATION":53.1591,"RA_OF_ASC_NODE":194.5036,"ARG_OF_PERICENTER":114.8827,"MEAN_ANOMALY":245.2281,"EPHEMERIS_TYPE":0,"CLASSIFICATION_TYPE":"U","NORAD_CAT_ID":62072,"ELEMENT_SET_NO":999,"REV_AT_EPOCH":7345,"BSTAR":0.0018575,"MEAN_MOTION_DOT":0.00055056,"MEAN_MOTION_DDOT":0},{"OBJECT_NAME":"TRANSPORTER-12 OBJECT AZ","OBJECT_ID":"2025-009AZ","EPOCH":"2026-03-09T17:02:46.667040","MEAN_MOTION":15.30349724,"ECCENTRICITY":9.87e-5,"INCLINATION":97.3981,"RA_OF_ASC_NODE":151.9913,"ARG_OF_PERICENTER":45.3581,"MEAN_ANOMALY":314.774,"EPHEMERIS_TYPE":0,"CLASSIFICATION_TYPE":"U","NORAD_CAT_ID":62656,"ELEMENT_SET_NO":999,"REV_AT_EPOCH":6379,"BSTAR":0.00054902545,"MEAN_MOTION_DOT":0.00016057,"MEAN_MOTION_DDOT":0}]
